{"type": "FeatureCollection", "features": [ {"type": "Feature", "properties": {"norad_id": 34468, "name": "COSMOS 2251 DEB", "group": "cosmos-2251-debris", "lat": 12.25286962041135, "lon": 113.96407479282865, "alt_km": 759.7083462262281, "timestamp": "2025-12-16T08:59:43.556009+00:00", "meta": {"OBJECT_NAME": "COSMOS 2251 DEB", "OBJECT_ID": "1993-036TM", "EPOCH": "2025-12-15T18:00:33.766848", "MEAN_MOTION": 14.47632709, "ECCENTRICITY": 0.00763337, "INCLINATION": 74.0127, "RA_OF_ASC_NODE": 111.5638, "ARG_OF_PERICENTER": 255.8744, "MEAN_ANOMALY": 103.3923, "EPHEMERIS_TYPE": 0, "CLASSIFICATION_TYPE": "U", "NORAD_CAT_ID": 34468, "ELEMENT_SET_NO": 999, "REV_AT_EPOCH": 88505, "BSTAR": 0.00034358221, "MEAN_MOTION_DOT": 1.284e-05, "MEAN_MOTION_DDOT": 0}, "tle": {"line1": "1 34468U 93036TM  25349.75039082  .00001284  00000+0  34358-3 0  9993", "line2": "2 34468  74.0127 111.5638 0076333 255.8744 103.3923 14.47632709885050"}}, "geometry": {"type": "Point", "coordinates": [113.96407479282865, 12.25286962041135]}}, {"type": "Feature", "properties": {"norad_id": 34472, "name": "COSMOS 2251 DEB", "group": "cosmos-2251-debris", "lat": 70.11031435547677, "lon": -139.89396337904356, "alt_km": 1107.309870780784, "timestamp": "2025-12-16T08:59:43.556019+00:00", "meta": {"OBJECT_NAME": "COSMOS 2251 DEB", "OBJECT_ID": "1993-036TR", "EPOCH": "2025-12-15T16:42:06.945408", "MEAN_MOTION": 13.70333959, "ECCENTRICITY": 0.03278684, "INCLINATION": 74.0841, "RA_OF_ASC_NODE": 93.2828, "ARG_OF_PERICENTER": 223.6385, "MEAN_ANOMALY": 133.8382, "EPHEMERIS_TYPE": 0, "CLASSIFICATION_TYPE": "U", "NORAD_CAT_ID": 34472, "ELEMENT_SET_NO": 999, "REV_AT_EPOCH": 83767, "BSTAR": 0.00064255425, "MEAN_MOTION_DOT": 8.06e-06, "MEAN_MOTION_DDOT": 0}, "tle": {"line1": "1 34472U 93036TR  25349.69591372  .00000806  00000+0  64255-3 0  9994", "line2": "2 34472  74.0841  93.2828 0327868 223.6385 133.8382 13.70333959837673"}}, "geometry": {"type": "Point", "coordinates": [-139.89396337904356, 70.11031435547677]}}, {"type": "Feature", "properties": {"norad_id": 34474, "name": "COSMOS 2251 DEB", "group": "cosmos-2251-debris", "lat": -9.957868752506824, "lon": -43.04044137533778, "alt_km": 768.7525990573777, "timestamp": "2025-12-16T08:59:43.556030+00:00", "meta": {"OBJECT_NAME": "COSMOS 2251 DEB", "OBJECT_ID": "1993-036TT", "EPOCH": "2025-12-15T21:12:29.589120", "MEAN_MOTION": 14.0643619, "ECCENTRICITY": 0.0198614, "INCLINATION": 74.0771, "RA_OF_ASC_NODE": 320.6895, "ARG_OF_PERICENTER": 33.7446, "MEAN_ANOMALY": 351.8248, "EPHEMERIS_TYPE": 0, "CLASSIFICATION_TYPE": "U", "NORAD_CAT_ID": 34474, "ELEMENT_SET_NO": 999, "REV_AT_EPOCH": 85553, "BSTAR": 0.0016453419, "MEAN_MOTION_DOT": 3.228e-05, "MEAN_MOTION_DDOT": 0}, "tle": {"line1": "1 34474U 93036TT  25349.88367580  .00003228  00000+0  16453-2 0  9996", "line2": "2 34474  74.0771 320.6895 0198614  33.7446 351.8248 14.06436190855530"}}, "geometry": {"type": "Point", "coordinates": [-43.04044137533778, -9.957868752506824]}}, {"type": "Feature", "properties": {"norad_id": 34476, "name": "COSMOS 2251 DEB", "group": "cosmos-2251-debris", "lat": 7.334359011430234, "lon": 78.49394323422898, "alt_km": 880.9105638981355, "timestamp": "2025-12-16T08:59:43.556040+00:00", "meta": {"OBJECT_NAME": "COSMOS 2251 DEB", "OBJECT_ID": "1993-036TV", "EPOCH": "2025-12-15T06:54:06.450624", "MEAN_MOTION": 13.82056656, "ECCENTRICITY": 0.03201, "INCLINATION": 74.0073, "RA_OF_ASC_NODE": 78.2102, "ARG_OF_PERICENTER": 297.2627, "MEAN_ANOMALY": 59.6224, "EPHEMERIS_TYPE": 0, "CLASSIFICATION_TYPE": "U", "NORAD_CAT_ID": 34476, "ELEMENT_SET_NO": 999, "REV_AT_EPOCH": 83673, "BSTAR": 0.0025453408, "MEAN_MOTION_DOT": 4.024e-05, "MEAN_MOTION_DDOT": 0}, "tle": {"line1": "1 34476U 93036TV  25349.28757466  .00004024  00000+0  25453-2 0  9993", "line2": "2 34476  74.0073  78.2102 0320100 297.2627  59.6224 13.82056656836735"}}, "geometry": {"type": "Point", "coordinates": [78.49394323422898, 7.334359011430234]}}, {"type": "Feature", "properties": {"norad_id": 34477, "name": "COSMOS 2251 DEB", "group": "cosmos-2251-debris", "lat": 22.800196413586566, "lon": -124.36258474313564, "alt_km": 704.8564447830377, "timestamp": "2025-12-16T08:59:43.556050+00:00", "meta": {"OBJECT_NAME": "COSMOS 2251 DEB", "OBJECT_ID": "1993-036TW", "EPOCH": "2025-12-15T23:12:52.948800", "MEAN_MOTION": 14.56888227, "ECCENTRICITY": 0.00768825, "INCLINATION": 73.9794, "RA_OF_ASC_NODE": 63.3508, "ARG_OF_PERICENTER": 249.9116, "MEAN_ANOMALY": 290.546, "EPHEMERIS_TYPE": 0, "CLASSIFICATION_TYPE": "U", "NORAD_CAT_ID": 34477, "ELEMENT_SET_NO": 999, "REV_AT_EPOCH": 88672, "BSTAR": 0.00056794643, "MEAN_MOTION_DOT": 2.621e-05, "MEAN_MOTION_DDOT": 0}, "tle": {"line1": "1 34477U 93036TW  25349.96727950  .00002621  00000+0  56795-3 0  9999", "line2": "2 34477  73.9794  63.3508 0076882 249.9116 290.5460 14.56888227886722"}}, "geometry": {"type": "Point", "coordinates": [-124.36258474313564, 22.800196413586566]}}, {"type": "Feature", "properties": {"norad_id": 34478, "name": "COSMOS 2251 DEB", "group": "cosmos-2251-debris", "lat": -13.666110084581451, "lon": -4.584368319725247, "alt_km": 559.8471904514736, "timestamp": "2025-12-16T08:59:43.556060+00:00", "meta": {"OBJECT_NAME": "COSMOS 2251 DEB", "OBJECT_ID": "1993-036TX", "EPOCH": "2025-12-15T11:26:14.049600", "MEAN_MOTION": 15.08239924, "ECCENTRICITY": 0.00347197, "INCLINATION": 74.041, "RA_OF_ASC_NODE": 1.2533, "ARG_OF_PERICENTER": 221.7563, "MEAN_ANOMALY": 288.5873, "EPHEMERIS_TYPE": 0, "CLASSIFICATION_TYPE": "U", "NORAD_CAT_ID": 34478, "ELEMENT_SET_NO": 999, "REV_AT_EPOCH": 89014, "BSTAR": 0.0018086269, "MEAN_MOTION_DOT": 0.00028477, "MEAN_MOTION_DDOT": 0}, "tle": {"line1": "1 34478U 93036TX  25349.47655150  .00028477  00000+0  18086-2 0  9995", "line2": "2 34478  74.0410   1.2533 0034719 221.7563 288.5873 15.08239924890144"}}, "geometry": {"type": "Point", "coordinates": [-4.584368319725247, -13.666110084581451]}}, {"type": "Feature", "properties": {"norad_id": 34481, "name": "COSMOS 2251 DEB", "group": "cosmos-2251-debris", "lat": 30.809814882214585, "lon": 56.66288216933208, "alt_km": 831.2179201417466, "timestamp": "2025-12-16T08:59:43.556071+00:00", "meta": {"OBJECT_NAME": "COSMOS 2251 DEB", "OBJECT_ID": "1993-036UA", "EPOCH": "2025-12-15T11:07:54.628608", "MEAN_MOTION": 14.32561963, "ECCENTRICITY": 0.00706457, "INCLINATION": 73.9808, "RA_OF_ASC_NODE": 48.466, "ARG_OF_PERICENTER": 222.3165, "MEAN_ANOMALY": 153.5912, "EPHEMERIS_TYPE": 0, "CLASSIFICATION_TYPE": "U", "NORAD_CAT_ID": 34481, "ELEMENT_SET_NO": 999, "REV_AT_EPOCH": 87488, "BSTAR": 0.00054891732, "MEAN_MOTION_DOT": 1.505e-05, "MEAN_MOTION_DDOT": 0}, "tle": {"line1": "1 34481U 93036UA  25349.46382672  .00001505  00000+0  54892-3 0  9993", "line2": "2 34481  73.9808  48.4660 0070645 222.3165 153.5912 14.32561963874889"}}, "geometry": {"type": "Point", "coordinates": [56.66288216933208, 30.809814882214585]}}, {"type": "Feature", "properties": {"norad_id": 34482, "name": "COSMOS 2251 DEB", "group": "cosmos-2251-debris", "lat": -36.05863314746347, "lon": -155.47587523260097, "alt_km": 647.6327566320797, "timestamp": "2025-12-16T08:59:43.556081+00:00", "meta": {"OBJECT_NAME": "COSMOS 2251 DEB", "OBJECT_ID": "1993-036UB", "EPOCH": "2025-12-15T21:46:39.273600", "MEAN_MOTION": 14.69252234, "ECCENTRICITY": 0.00448046, "INCLINATION": 74.0368, "RA_OF_ASC_NODE": 217.4583, "ARG_OF_PERICENTER": 276.8292, "MEAN_ANOMALY": 93.8857, "EPHEMERIS_TYPE": 0, "CLASSIFICATION_TYPE": "U", "NORAD_CAT_ID": 34482, "ELEMENT_SET_NO": 999, "REV_AT_EPOCH": 88234, "BSTAR": 0.0011393637, "MEAN_MOTION_DOT": 6.795e-05, "MEAN_MOTION_DDOT": 0}, "tle": {"line1": "1 34482U 93036UB  25349.90739900  .00006795  00000+0  11394-2 0  9998", "line2": "2 34482  74.0368 217.4583 0044804 276.8292  93.8857 14.69252234882340"}}, "geometry": {"type": "Point", "coordinates": [-155.47587523260097, -36.05863314746347]}}, {"type": "Feature", "properties": {"norad_id": 34544, "name": "COSMOS 2251 DEB", "group": "cosmos-2251-debris", "lat": 32.97389540181127, "lon": 7.35609308044208, "alt_km": 995.0327932950622, "timestamp": "2025-12-16T08:59:43.556091+00:00", "meta": {"OBJECT_NAME": "COSMOS 2251 DEB", "OBJECT_ID": "1993-036UE", "EPOCH": "2025-12-13T23:53:30.258240", "MEAN_MOTION": 13.5466391, "ECCENTRICITY": 0.03840916, "INCLINATION": 73.914, "RA_OF_ASC_NODE": 201.9961, "ARG_OF_PERICENTER": 230.2101, "MEAN_ANOMALY": 200.3541, "EPHEMERIS_TYPE": 0, "CLASSIFICATION_TYPE": "U", "NORAD_CAT_ID": 34544, "ELEMENT_SET_NO": 999, "REV_AT_EPOCH": 82899, "BSTAR": 0.0003836434, "MEAN_MOTION_DOT": 3.97e-06, "MEAN_MOTION_DDOT": 0}, "tle": {"line1": "1 34544U 93036UE  25347.99548910  .00000397  00000+0  38364-3 0  9992", "line2": "2 34544  73.9140 201.9961 0384091 230.2101 200.3541 13.54663910828997"}}, "geometry": {"type": "Point", "coordinates": [7.35609308044208, 32.97389540181127]}}, {"type": "Feature", "properties": {"norad_id": 34546, "name": "COSMOS 2251 DEB", "group": "cosmos-2251-debris", "lat": -24.44681942704874, "lon": 69.888057998258, "alt_km": 751.2245333149258, "timestamp": "2025-12-16T08:59:43.556101+00:00", "meta": {"OBJECT_NAME": "COSMOS 2251 DEB", "OBJECT_ID": "1993-036UG", "EPOCH": "2025-12-15T19:03:23.613120", "MEAN_MOTION": 14.45426324, "ECCENTRICITY": 0.00219695, "INCLINATION": 74.0311, "RA_OF_ASC_NODE": 243.4909, "ARG_OF_PERICENTER": 316.9861, "MEAN_ANOMALY": 107.7206, "EPHEMERIS_TYPE": 0, "CLASSIFICATION_TYPE": "U", "NORAD_CAT_ID": 34546, "ELEMENT_SET_NO": 999, "REV_AT_EPOCH": 88070, "BSTAR": 0.00046579609, "MEAN_MOTION_DOT": 1.618e-05, "MEAN_MOTION_DDOT": 0}, "tle": {"line1": "1 34546U 93036UG  25349.79402330  .00001618  00000+0  46580-3 0  9995", "line2": "2 34546  74.0311 243.4909 0021969 316.9861 107.7206 14.45426324880703"}}, "geometry": {"type": "Point", "coordinates": [69.888057998258, -24.44681942704874]}}]}